#aV2015 10 12  0  0  0.00000000     288 DD+AD WGS84 FIT  NGA
## 1866  86400.00000000   300.00000000 57307 0.0000000000000
+   31     1  2  3  4  5  6  7  8  9 11 12 13 14 15 16 17 18
+         19 20 21 22 23 24 25 26 27 28 29 30 31 32  0  0  0
+          0  0  0  0  0  0  0  0  0  0  0  0  0  0  0  0  0
+          0  0  0  0  0  0  0  0  0  0  0  0  0  0  0  0  0
+          0  0  0  0  0  0  0  0  0  0  0  0  0  0  0  0  0
++         2  2  2  2  2  2  2  2  2  2  2  2  2  2  2  2  2
++         2  2  2  2  2  2  2  2  2  2  2  2  2  2  0  0  0
++         0  0  0  0  0  0  0  0  0  0  0  0  0  0  0  0  0
++         0  0  0  0  0  0  0  0  0  0  0  0  0  0  0  0  0
++         0  0  0  0  0  0  0  0  0  0  0  0  0  0  0  0  0
%c cc cc ccc ccc cccc cccc cccc cccc ccccc ccccc ccccc ccccc
%c cc cc ccc ccc cccc cccc cccc cccc ccccc ccccc ccccc ccccc
%f  0.0000000  0.000000000  0.00000000000  0.000000000000000
%f  0.0000000  0.000000000  0.00000000000  0.000000000000000
%i    0    0    0    0      0      0      0      0         0
%i    0    0    0    0      0      0      0      0         0
/*      NGA, ST. LOUIS,MO.                                  
/*   EPHEMERIS COMPUTED FROM 2 DAYS OF DATA                 
/*   EPOCHA v2.4 SMOOTHER                                   
/*   G1762 IERS2010 SATAF SATAPC                            
*  2015 10 12  4 25  0.00000000
P  1 -22546.390501 -13078.464563   5567.948233      2.206922                    
V  1  -3988.267468  -6413.813843 -30614.102704      0.007391                    
P  2   9524.101152  20400.046979  14810.254424    592.413679                    
V  2 -15764.958263  -8980.436899  22682.690769      0.013408                    
P  3 -13692.070341  -8532.813080  21100.520162     20.354783                    
V  3   4566.454581 -26404.907269  -7738.264385     -0.011945                    
P  4 -19220.199269 -18185.642458  -3919.560784    -31.223471                    
V  4   5513.152673    225.988844 -30611.012170     -0.048833                    
P  5   3187.347626  24688.263147  -9040.159940   -186.016944                    
V  5  -4630.385705  10948.538930  28653.614866      0.039490                    
P  6  -2871.092547  16207.737601  20842.225452     75.088185                    
V  6 -21301.989672 -15728.051810   9286.554396      0.070529                    
P  7 -19967.101586   -895.094679 -17558.536735    483.064578                    
V  7 -16352.862901 -15333.756436  18857.667244     -0.008337                    
P  8 -15241.782069  -8803.877389 -19840.155891     -8.420778                    
V  8  23018.585065 -10560.014464 -12979.562333     -0.013404                    
P  9 -25230.356688   7554.771226   3489.888695     -3.243638                    
V  9   3025.418820  -4361.761040  31238.927787      0.035190                    
P 11 -23983.288832 -11033.976799  -3840.126088   -609.659058                    
V 11   5515.500185  -3138.501685 -29634.450323     -0.022690                    
P 12  11488.205975  11946.627687  20701.053442    336.068812                    
V 12  -5656.115342  25785.898126 -11479.092873      0.032947                    
P 13   4821.934892  14231.727061 -22030.771297   -156.048922                    
V 13 -26605.649426   7415.922425  -1141.302621     -0.028837                    
P 14  18716.279819 -14575.777589  12041.898639     28.695532                    
V 14  14943.279066  -2286.384796 -26699.381550     -0.023325                    
P 15  17042.959986   7729.131743 -19067.159272   -276.374082                    
V 15 -21170.931219  11389.495917 -14046.675240     -0.020107                    
P 16   -799.363102 -24748.981917  -9157.866770    -77.388681                    
V 16   4356.150564 -10919.227213  29743.433625      0.038047                    
P 17 -17974.125671  15179.992119  12416.877607   -190.688055                    
V 17 -15170.089058   3088.556020 -26591.482989     -0.012210                    
P 18  14990.975892 -11729.133296 -17904.972203    442.122554                    
V 18   -569.586946  24096.511643 -16098.111583      0.037137                    
P 19 -24651.681618   -396.645913 -10692.382213   -521.403963                    
V 19  12038.003542  -5397.069248 -27719.591063     -0.005233                    
P 20  13869.565469  11763.890887 -19488.490018    362.436087                    
V 20  -3247.719261  24401.885699  12596.454252      0.029814                    
P 21  18374.422199  -3084.049097 -18335.885068   -486.101977                    
V 21  18657.301296  16362.109483  15037.575291     -0.026314                    
P 22   9502.000292 -22994.771476  -8806.345608    400.035553                    
V 22   2397.382026  12003.111429 -28179.541325      0.037528                    
P 23 -22168.658521  -2712.873849  14866.855852   -138.340486                    
V 23  16404.813396  -8674.293977  22709.307419     -0.021369                    
P 24  22224.182519  14441.997616   2738.291960     -6.154107                    
V 24   1005.933783   4469.942598 -31192.702590     -0.006844                    
P 25  15071.365390  -2882.184159  21557.316114    -51.233977                    
V 25  -3487.214334  27365.662943   6229.323581     -0.054225                    
P 26   4729.887517 -26088.777353   1475.269783    -81.261698                    
V 26   2531.432826   2250.914516  31690.404436     -0.130216                    
P 27  -2904.483517 -14958.922784 -21771.425995     26.824665                    
V 27  25694.883583  -9989.950335   3560.082588      0.030621                    
P 28 -12075.291395  20412.951612 -11243.619753    473.797353                    
V 28   1467.704693 -15280.174582 -27864.815773      0.027085                    
P 29  25509.106788  -4367.911314   5899.590708    639.078689                    
V 29  -6338.952315   4584.389705  30904.726569      0.018981                    
P 30 -12435.524678   9316.796461 -21546.352457     39.656129                    
V 30 -20008.939084 -18685.898315   3386.447352      0.062019                    
P 31   2660.521991 -16312.877175  20840.047844    299.537152                    
V 31  20618.578794  16218.512767  10458.706034     -0.014513                    
P 32  -6793.630342 -20616.456498  15605.880208    -16.938430                    
V 32   6269.639083 -18810.477115 -21507.989555      0.113731                    
EOF
